title,url,address,lat,lon
Weihnachtsbasar im Auswärtigen Amt,https://www.gratis-in-berlin.de/heute/item/2023777-weihnachtsbasar-im-auswaertigen-amt,Werderscher Markt  1 10117 Berlin Germany,52.5158853,13.3975006
Norwegischer Weihnachtsmarkt,https://www.gratis-in-berlin.de/heute/item/2047071-norwegischer-weihnachtsmarkt,wartenburgstrasse 7 10963 Berlin,52.4963646,13.380852
Kunst im Karton 2/2 (Advent in Gerichtshöfen),https://www.gratis-in-berlin.de/heute/item/2076120-kunst-im-karton-2-2-advent-in-gerichtshoefen,Gerichtstraße 12/13 13347 Berlin,52.5445515,13.3767784
Berlin Chili Fest : Spicy Christmas Market @Kalle Halle Markthalle,https://www.gratis-in-berlin.de/heute/item/2075321-berlin-chili-fest-spicy-christmas-market-kalle-halle-markthalle,Karl,50.0419792,6.8028082
Schaurig schöner Adventsmarkt in Steglitz-Zehlendorf mit Feuerwerk,https://www.gratis-in-berlin.de/heute/item/2076177-schaurig-schoener-adventsmarkt-in-steglitz-zehlendorf-mit-feuerwerk,Goerzallee 299 14167 Berlin,52.4125692,13.2764361
Weihnachten am THF - Wintermarkt,https://www.gratis-in-berlin.de/heute/item/2070308-weihnachten-am-thf-wintermarkt,Tempelhofer Damm 45 12101 Berlin,52.4771738,13.3871949
Englischer Weihnachtsmarkt (British Christmas Fair),https://www.gratis-in-berlin.de/heute/item/2012699-englischer-weihnachtsmarkt-british-christmas-fair,Preußenallee 17 14052 Berlin,52.5133274,13.2593465
"Portugiesisches Weihnachtsfest – Kulinarik, Musik und Tanz aus Portugal",https://www.gratis-in-berlin.de/heute/item/2076186-portugiesisches-weihnachtsfest-kulinarik-musik-und-tanz-aus-portugal,Franz,48.4655854,-84.4128619
Radical Christmas Market,https://www.gratis-in-berlin.de/heute/item/2076081-radical-christmas-market,Alte Potsdamer Str.  7 10785 Berlin,52.5074122,13.3741147
Bibim- Koreanische Tanz-und Musiknacht,https://www.gratis-in-berlin.de/heute/item/2076255-bibim-koreanische-tanz-und-musiknacht,Philippistraße 7 14059 Berlin,52.5114206,13.2866873
Winterfest und Open House im Silent Green Kulturquartier,https://www.gratis-in-berlin.de/heute/item/2076121-winterfest-und-open-house-im-silent-green-kulturquartier,Gerichtstraße 35 13347 Berlin,52.5456853,13.36649
Auf dem Wasser zum Kladower Weihnachtsmarkt (letztes Mal),https://www.gratis-in-berlin.de/heute/item/2001287-auf-dem-wasser-zum-kladower-weihnachtsmarkt-letztes-mal,Imchenplatz 14089 Berlin Germany,52.4525852,13.1484637
Hannah Arendt zum 50. Todestag,https://www.gratis-in-berlin.de/heute/item/2076264-hannah-arendt-zum-50-todestag,Ulmenallee 35 14050 Berlin,52.518054,13.2675523
"Vernissage der Kunstausstellung ""Hypermetabolism"" von Anna Reinert",https://www.gratis-in-berlin.de/heute/item/2076242-vernissage-der-kunstausstellung-hypermetabolism-von-anna-reinert,Hauptstraße 77 12159 Berlin,52.4734036,13.3371708
Berliner Nikolauslauf - ohne Verkleidung wie ...?,https://www.gratis-in-berlin.de/heute/item/2058319-berliner-nikolauslauf-ohne-verkleidung-wie,Elvirasteig  3 14163 Berlin,52.4380067,13.2263363
»Nur von den Dichtern erwarten wir Wahrheit« – Salonkonzert,https://www.gratis-in-berlin.de/heute/item/2076180-nur-von-den-dichtern-erwarten-wir-wahrheit-salonkonzert,Ulmenallee 35 14050 Berlin,52.518054,13.2675523
"""Alle Jahre wieder Glühwein"" - im RegenbogenCafé",https://www.gratis-in-berlin.de/heute/item/2076069-alle-jahre-wieder-gluehwein-im-regenbogencafe,Lausitzer Straße 21 10999 Berlin,52.4958155,13.4270277
Instrumental Ethno-Psych Rock,https://www.gratis-in-berlin.de/heute/item/2076170-instrumental-ethno-psych-rock,Schwedenstrasse 11A 13357 Berlin,52.5558695,13.3743354
Aktzeichnen - Life Model Drawing,https://www.gratis-in-berlin.de/heute/item/2057526-aktzeichnen-life-model-drawing,Wühlischstr.  42 10245 Berlin,52.508683,13.4607474
Adventskonzert des Polizeichors Berlin e.V.,https://www.gratis-in-berlin.de/heute/item/2076153-adventskonzert-des-polizeichors-berlin-e-v,Sächsische Str. 58 10707 Berlin,52.4944334,13.3180003
Nikolaus-Speed-Dating,https://www.gratis-in-berlin.de/heute/item/2076064-nikolaus-speed-dating,Torstraße 190 10115 Berlin,52.528111,13.392888
Beat-schuppen,https://www.gratis-in-berlin.de/heute/item/2075987-beat-schuppen,Rosenthaler strasse 39 10178 Berlin,52.5244928,13.4019195
Romantischer Advent im NoonSong,https://www.gratis-in-berlin.de/heute/item/2051037-noonsong-mit-bach-motette-livestream-aus-der-kirche-am-hohenzollernplatz,Nassauische Str. 66,52.4938352,13.3265974
Pop @ Peppi Guggenheim: Die Blauen Pilze,https://www.gratis-in-berlin.de/heute/item/2076000-pop-peppi-guggenheim-die-blauen-pilze,Weichselstrasse 7 12043 Berlin,52.4842382,13.4330943
Open Stage im Pview III,https://www.gratis-in-berlin.de/heute/item/2065533-open-stage-im-pview-iii,Lipschitzallee 70 12353 Berlin,52.4251284,13.4635289
Meditation mit Handpan,https://www.gratis-in-berlin.de/heute/item/2075976-meditation-mit-handpan,Lehderstraße 74 13086 Berlin,52.5508391,13.435867
"Kiezflohmarkt im ZIK, ehem. Globetrotter/Steglitzer Kreisel",https://www.gratis-in-berlin.de/heute/item/2075144-kiezflohmarkt-im-zik-ehem-globetrotter-steglitzer-kreisel,Schloßstr. 82 12165 Berlin,52.456574,13.3209436
Alt-Rixdorfer Weihnachtsmarkt am Richardplatz,https://www.gratis-in-berlin.de/heute/item/2023968-alt-rixdorfer-weihnachtsmarkt-am-richardplatz,Richardplatz 12055 Berlin Germany,52.4742125,13.445722
Wir in Berlin“ Stadtspaziergänge für und mit Migrant*innen  Diesmal: Stadtführung durch Wedding,https://www.gratis-in-berlin.de/heute/item/2076223-wir-in-berlin-stadtspaziergaenge-fuer-und-mit-migrant-innen-diesmal-stadtfuehrung-durch-wedding,Berlin,52.5173885,13.3951309
Tüftel-Samstage in der Humboldt-Bibliothek,https://www.gratis-in-berlin.de/heute/item/2075650-tueftel-samstage-in-der-humboldt-bibliothek,Karolinenstr. 19 13507 Berlin,52.5919367,13.2806031
76. Advents- und Weihnachtsmusiken des Posaunendienstes Musik in der St. Marienkirche,https://www.gratis-in-berlin.de/heute/item/2075589-76-advents-und-weihnachtsmusiken-des-posaunendienstes-musik-in-der-st-marienkirche,Karl,50.0419792,6.8028082
Japan in Berlin erleben!,https://www.gratis-in-berlin.de/heute/item/2074463-japan-in-berlin-erleben,Osloer Str. 12 13359 Berlin,52.5561076,13.3859917
Klavieriki-Konzert: Der Nussknacker,https://www.gratis-in-berlin.de/heute/item/2075437-klavieriki-konzert-der-nussknacker,Weißenburger Straße  9,48.1287726,11.5954779
Realistisches Zeichen und Malen mit Ahmad Sharaa,https://www.gratis-in-berlin.de/heute/item/2074959-realistisches-zeichen-und-malen-mit-ahmad-sharaa,Residenzstraße 132 13409 Berlin,52.5692012,13.3617821
LachMeditationSpaziergang (LMS) - ein Hauch von Weihnachtsurlaub in Berlin,https://www.gratis-in-berlin.de/heute/item/2022017-lachmeditationspaziergang-lms-ein-hauch-von-urlaub-in-berlin,Pfaueninselchaussee  100 14109 Berlin,52.4283486,13.1229907
Grußkarten mit Mina Braun,https://www.gratis-in-berlin.de/heute/item/2076127-grusskarten-mit-mina-braun,Adalbertstraße 2 10999 Berlin,52.4998314,13.4185013
Ausstellungsbegleitung: Tränenpalast. Ort der deutschen Teilung,https://www.gratis-in-berlin.de/heute/item/2053208-bahnhofsrundgang-am-traenenpalast,Reichstagufer 17 10117 Berlin,52.5209131,13.3871461
20 Jahre Parodos Verlag / Jubiläumsveranstaltung,https://www.gratis-in-berlin.de/heute/item/2075885-20-jahre-parodos-verlag-jubilaeumsveranstaltung,Schönhauser Allee 58 10437 Berlin,52.5441151,13.4128502
"SANCTA(?) HELENA  Ein Reich, ein Kaiser, eine starke Frau",https://www.gratis-in-berlin.de/heute/item/2075797-sancta-helena-ein-reich-ein-kaiser-eine-starke-frau,Ludwigkirchplatz 10 10719 Berlin,52.4971815,13.3216058
Kindertheater beim Lucia Weihnachtsmarkt in der Kulturbrauerei,https://www.gratis-in-berlin.de/heute/item/2069577-kindertheater-beim-lucia-weihnachtsmarkt-in-der-kulturbrauerei,Schönhauser Allee 36 10435 Berlin,52.5394242,13.4136682
ABI Zukunft Berlin 2025,https://www.gratis-in-berlin.de/heute/item/2074869-abi-zukunft-berlin-2025,Sonnenallee 225 12057 Berlin,52.4736275,13.4588496
Umwelt-Weihnachtsmarkt Sophienstraße,https://www.gratis-in-berlin.de/heute/item/2012696-umwelt-weihnachtsmarkt-sophienstrasse,Sophienstraße 10178 Berlin,52.5256266,13.4009323
76. Advents- und Weihnachtsmusiken des Posaunendienstes,https://www.gratis-in-berlin.de/heute/item/2075229-76-advents-und-weihnachtsmusiken-des-posaunendienstes-musik,Karl,50.0419792,6.8028082
Böhmischer Weihnachtsmarkt auf Weberplatz Postdam Babelsberg,https://www.gratis-in-berlin.de/heute/item/2011418-boehmischer-weihnachtsmarkt-auf-weberplatz-postdam-babelsberg,Weberplatz 14482 Potsdam,52.3935087,13.0963919
Yu-Gi-Oh! Duell-Arena,https://www.gratis-in-berlin.de/heute/item/2073983-yu-gi-oh-duell-arena,Steinstr. 41 12307 Berlin,52.3878731,13.3971538
Häppy Dystopia - Kunstausstellung 5. - 7.12.2025,https://www.gratis-in-berlin.de/heute/item/2076157-haeppy-dystopia-kunstausstellung-5-7-12-2025,Danziger Str.  172 10407 Berlin,52.5324763,13.4400042
Weihnachtströdel am Richardplatz in Neukölln,https://www.gratis-in-berlin.de/heute/item/2068777-troedel-am-richardplatz-in-neukoelln,Richardplatz 6 12055 Berlin,52.4744423,13.4445385
Hennigsdorfer Weihnachtsmarkt,https://www.gratis-in-berlin.de/heute/item/2074906-hennigsdorfer-weihnachtsmarkt,Postplatz 16761 Berlin,52.4313213,13.2578427
Weihnachts-Ausstellung Floristik und Malerei (Sa - Di),https://www.gratis-in-berlin.de/heute/item/2076196-weihnachts-ausstellung-floristik-und-malerei-sa-di,Reuterstraße  82 Berlin Berlin,52.4834035,13.4287591
Interaktive Nachhaltigkeitsausstellung  „Green up your Life!“ im Berliner Hauptbahnhof,https://www.gratis-in-berlin.de/heute/item/2075909-interaktive-nachhaltigkeitsausstellung-green-up-your-life-im-berliner-hauptbahnhof,Europaplatz 1 10557 Berlin,52.5257446,13.3685935
Spielenachmittage für Jung & Alt in der Stadtteilbibliothek Lichtenrade,https://www.gratis-in-berlin.de/heute/item/2074226-spielenachmittage-fuer-jung-alt-in-der-stadtteilbibliothek-lichtenrade,Steinstr. 41 12307 Berlin,52.3878731,13.3971538
"Die Aktgalerie / ""Portraits etwas anders"" von Bernd Rietdorff und Lucas Dörfner (Fr-Sa-So)",https://www.gratis-in-berlin.de/heute/item/2075477-die-aktgalerie-portraits-etwas-anders-von-bernd-rietdorff-und-lucas-doerfner-fr-sa-so,Krossener Straße 34 10245 Berlin,52.5093544,13.464978
"Mitmach-Ausstellung für Kinder: „Ich bestimme mit! In Familie, Schule und Freizeit.“ (Mo - Sa)",https://www.gratis-in-berlin.de/heute/item/2074082-mitmach-ausstellung-fuer-kinder-ich-bestimme-mit-in-familie-schule-und-freizeit-mo-sa,Frankfurter Allee 14A 10247 Berlin,52.514551,13.4570531
Stricktreff für Anfänger*innen & Fortgeschrittene,https://www.gratis-in-berlin.de/heute/item/2075717-stricktreff-fuer-anfaenger-innen-fortgeschrittene,Frankfurter Allee Frankfurter Allee 10247 Berlin,52.5149375,13.4745707
Retrovision: 10 Jahre Chaussee 36 (Mi - Sa),https://www.gratis-in-berlin.de/heute/item/2074287-retrovision-10-jahre-chaussee-36-mi-sa,Chausseestr.  36 10115 Berlin,52.5332955,13.380659
Erzähltheater für Kinder - Mit Kathleen Rappolt (einzelne Termine),https://www.gratis-in-berlin.de/heute/item/2075990-erzaehltheater-fuer-kinder-mit-kathleen-rappolt-einzelne-termine,Berlin,52.5173885,13.3951309
Europacity-Vibes-Weihnachtsmarkt (täglich),https://www.gratis-in-berlin.de/heute/item/2075994-europacity-vibes-weihnachtsmarkt-taeglich,Europaplatz 1 10557 Berlin,52.5257446,13.3685935
Kurzgeschichten Wettbewerb für Jugendliche 8 - 12 / 12 - 16,https://www.gratis-in-berlin.de/heute/item/2076233-kurzgeschichten-wettbewerb-fuer-jugendliche-8-12-12-16,Crellestraße 38 10827 Berlin,52.4879674,13.3603428
"Das Romanische Café im Stil der 20er (Fr, Sa & Adventssonntage)",https://www.gratis-in-berlin.de/heute/item/2065322-das-romanische-cafe-im-stil-der-20er-fr-sa-adventssonntage,Tauentzienstraße  9 10787 Berlin,52.504856,13.337072
Lucia Weihnachtsmarkt in der Kulturbrauerei Berlin (täglich),https://www.gratis-in-berlin.de/heute/item/2033408-lucia-weihnachtsmarkt-in-der-kulturbrauerei-berlin-taeglich,Schönhauser Allee 36,52.5394242,13.4136682
Spandauer Weihnachtsmarkt,https://www.gratis-in-berlin.de/heute/item/2001348-spandauer-weihnachtsmarkt,Altstadt Spandau 13597 Berlin Germany,52.5388381,13.2062573
Spandauer Winterland (außer 16. & 23.11.),https://www.gratis-in-berlin.de/heute/item/2075923-spandauer-winterland-ausser-16-23-11,Klosterstraße 38 13581 Berlin,52.5334839,13.1996139
LGBT Winterdays & Christmas Avenue in Schöneberg (täglich außer 23.11.),https://www.gratis-in-berlin.de/heute/item/2075848-lgbt-winterdays-christmas-avenue-in-schoeneberg-taeglich-ausser-23-11,Nollendorfplatz 10787 Berlin,52.4995972,13.3537297
MAP 2025 – Arrival? Bremen – Hanoi – Berlin (Dienstag – Samstag: 11 – 19 Uhr),https://www.gratis-in-berlin.de/heute/item/2075903-map-2025-arrival-bremen-hanoi-berlin,Turmstraße 75 10551 Berlin,52.5264293,13.33386
"""Das Junge Rheinland"": Künstlergruppe der 20er Jahre.",https://www.gratis-in-berlin.de/heute/item/2075725-das-junge-rheinland-kuenstlergruppe-der-20er-jahre,Fasanenstr. 29 12205 Berlin,52.5008909,13.3269253
Berliner Wintertraum  (täglich außer Heiligabend),https://www.gratis-in-berlin.de/heute/item/2075537-berliner-wintertraum-taeglich-ausser-heiligabend,Schnellerstraße 145 12439 Berlin,52.4645931,13.4982029
KI zum Anfassen im Technikmuseum (Di - So),https://www.gratis-in-berlin.de/heute/item/2071060-ki-zum-anfassen-im-technikmuseum-di-so,Möckernstraße 26 10963 Berlin,52.4981416,13.3792632
Historischer Weihnachtsmarkt Potsdam - Blauer Lichterglanz (täglich außer Heiligabend),https://www.gratis-in-berlin.de/heute/item/2008243-historischer-weihnachtsmarkt-potsdam-blauer-lichterglanz-taeglich-ausser-heiligabend,Brandenburgische Str. 14467 Potsdam Germany,52.4056458,13.0709973
Weihnachtsmarkt Schloss Charlottenburg (außer 24.12.),https://www.gratis-in-berlin.de/heute/item/2013073-weihnachtsmarkt-schloss-charlottenburg-ausser-24-12,Spandauer Damm  10,52.5206424,13.2927104
"""Die Feuerzangenbowle"" mit Heinz Rühmann im Nikolaiviertel beim ""Winter-Film-Fest"" schauen (tgl. außer Heiligabend)",https://www.gratis-in-berlin.de/heute/item/2034412-die-feuerzangenbowle-mit-heinz-ruehmann-im-nikolaiviertel-beim-winter-film-fest-schauen-tgl-ausser-heiligabend,Nikolaiviertel Poststraße 7 10178 Berlin,52.5168212,13.4061613
Weihnachtsmarkt 'Berliner Weihnachtszeit' am Roten Rathaus / Alexanderplatz mit Eisbahn (außer Heiligabend),https://www.gratis-in-berlin.de/heute/item/2005336-weihnachtsmarkt-berliner-weihnachtszeit-am-roten-rathaus-alexanderplatz-mit-eisbahn-ausser-heiligabend,Berlin Germany,52.5173885,13.3951309
Stranger Things Weihnachtsmarkt (täglich außer 24.-26.12.),https://www.gratis-in-berlin.de/heute/item/2076257-stranger-things-weihnachtsmarkt-taeglich-ausser-24-26-12,229 Kürfurstendamm  10719  Berlin,52.5036757,13.3322146
Weihnachts-Rummel Winterzauber an der Landsberger Allee (täglich außer 23.11. & 24.12.),https://www.gratis-in-berlin.de/heute/item/2047112-weihnachts-rummel-winterzauber-an-der-landsberger-allee-taeglich-ausser-23-11-24-12,Landsberger Allee 364 10365 Berlin,52.5338376,13.514577
Kunstausstellung Let's Talk About Food von Tainá Guedes (Mo - Sa),https://www.gratis-in-berlin.de/heute/item/2074645-kunstausstellung-let-s-talk-about-food-von-taina-guedes-mo-sa,Wilmersdorfer Str.  46 10627 Berlin,52.5091104,13.3046728
Weihnachtsmarkt Winterquartier Napoleon Komplex (täglich außer 24. & 25.12.),https://www.gratis-in-berlin.de/heute/item/2076133-weihnachtsmarkt-winterquartier-napoleon-komplex-taeglich-ausser-24-25-12,Modersohnstraße 49a 10245 Berlin,52.5057421,13.4584166
Winterwelt 2025 / 2026 am Potsdamer Platz (täglich),https://www.gratis-in-berlin.de/heute/item/2025264-winterwelt-2024-2025-am-potsdamer-platz-taeglich,Marlene,-22.8933426,-43.2570551
Manatunga. Künstlerische Interventionen von George Nuku (Mi - Mo),https://www.gratis-in-berlin.de/heute/item/2072414-manatunga-kuenstlerische-interventionen-von-george-nuku-mi-mo,"Humboldt Forum, Schloßplatz 10178 Berlin",52.5172152,13.4007352
Zusammenleben (einzelne Termine),https://www.gratis-in-berlin.de/heute/item/2074208-zusammenleben-einzelne-termine,Blücherplatz 1 10961 Berlin,52.4965672,13.3924936
Weihnachtsbeleuchtung um Kudamm mit spektakulären Licht-Motiven,https://www.gratis-in-berlin.de/heute/item/2008297-weihnachtsbeleuchtung-um-kudamm-mit-spektakulaeren-licht-motiven,Berlin Germany,52.5173885,13.3951309
Weihnachtsmarkt am Humboldt Forum & Wintermarkt (außer 24.12.) mit Laser-Shows Di & Do,https://www.gratis-in-berlin.de/heute/item/2070628-weihnachtsmarkt-am-humboldt-forum-wintermarkt-ausser-24-12-mit-laser-shows-di-do,Schlossplatz 10178 Berlin,52.516714,13.4031305
Friendly Capitalism Lounge Vol. 22 (Mo-Sa 12-20 Uhr),https://www.gratis-in-berlin.de/heute/item/2075982-friendly-capitalism-lounge-vol-22-mo-sa-12-20-uhr,Rosenthaler Str. 39 10178 Berlin,52.5244928,13.4019195
Weihnachtsmarkt am Kadewe Wittenbergplatz (täglich),https://www.gratis-in-berlin.de/heute/item/2075545-weihnachtsmarkt-am-kadewe-wittenbergplatz-taeglich,Berlin,52.5173885,13.3951309
"Vera Mercer - Life in Focus ZAK Spandau Fr-Mi 10-17, Do 13-20 Uhr",https://www.gratis-in-berlin.de/heute/item/2074744-vera-mercer-life-in-focus-zak-spandau-fr-mi-10-17-do-13-20-uhr,Am Juliusturm  64 13599 Berlin,52.5410344,13.2127443
Sony World Photography Awards (Di - So),https://www.gratis-in-berlin.de/heute/item/2046662-sony-world-photography-awards-di-so,Wilhelmstraße  140 10963 Berlin Germany,52.500366,13.388343
Relations in Place | Ausstellung im Bärenzwinger (täglich),https://www.gratis-in-berlin.de/heute/item/2075658-relations-in-place-ausstellung-im-baerenzwinger-taeglich,Rungestraße  30 10179 Berlin,52.5125985,13.4159358
Hoffnung أﻣل - Einzelausstellung der Künstlerin Jamila Barakat,https://www.gratis-in-berlin.de/heute/item/2075988-hoffnung-einzelausstellung-der-kuenstlerin-jamila-barakat,Frankfurter Tor 1 10243 Berlin,52.5165034,13.4527335
Sonderausstellung Crossfire von Jac Carley (Do - So),https://www.gratis-in-berlin.de/heute/item/2075969-sonderausstellung-crossfire-von-jac-carley-do-so,Schloßstraße 69 b 14059 Berlin,52.519077,13.297931
„Auf die Plätze“ Motive aus den Stadtteilen – künstlerisch gestaltet von Potsdamer Kreativen,https://www.gratis-in-berlin.de/heute/item/2075429-auf-die-plaetze-motive-aus-den-stadtteilen-kuenstlerisch-gestaltet-von-potsdamer-kreativen,Pappelallee 4 14469 Potsdam,52.4105205,13.0521789
Graciela Carnevale. Pieza Bianca (Di-Fr),https://www.gratis-in-berlin.de/heute/item/2075374-graciela-carnevale-pieza-bianca-di-fr,Chausseestraße  128/129 10115 Berlin,52.5279121,13.3860465
"Ausstellung ""beyond tongues – Synästhetische Übertragung"" • Sarah Oh-Mock & Bongjun Oh (täglich)",https://www.gratis-in-berlin.de/heute/item/2074813-ausstellung-beyond-tongues-synaesthetische-uebertragung-sarah-oh-mock-bongjun-oh-taeglich,Karl,50.0419792,6.8028082
Fotoausstellung - Kontroverse & Paradoxe 2,https://www.gratis-in-berlin.de/heute/item/2075317-fotoausstellung-kontroverse-paradoxe-2,Kurfürstendamm 211 10719 Berlin,52.5020922,13.3249378
Moyra Davey (Di-So),https://www.gratis-in-berlin.de/heute/item/2075375-moyra-davey-di-so,Chausseestraße  128,52.5277487,13.3862025
Ausstellungseinführung mit dem Willkommensteam,https://www.gratis-in-berlin.de/heute/item/2071882-ausstellungseinfuehrung-mit-dem-willkommensteam,Kiehnwerderallee  2 12437 Berlin,52.4814927,13.4943009
Ausstellung: Im Gespräch mit Geistern,https://www.gratis-in-berlin.de/heute/item/2076054-im-gespraech-mit-geistern,Kiehnwerderallee  2 12437 Berlin,52.4814927,13.4943009
Wechselausstellung: Ostblicke. Fotografien von Sophie Kirchner und Philipp Baumgarten (Di - So),https://www.gratis-in-berlin.de/heute/item/2070889-wechselausstellung-ostblicke-fotografien-von-sophie-kirchner-und-philipp-baumgarten-di-so,Knaackstraße 97 10435 Berlin,52.5402922,13.4140783
"Miteinander im Kiezladen Tempelhof (Mo, Di, Mi, Fr)",https://www.gratis-in-berlin.de/heute/item/2070914-miteinander-im-kiezladen-tempelhof-mo-di-mi-fr,Badener Ring  15 12101 Berlin,52.4818441,13.3797732
Up Close – Goldrausch 2025 (täglich),https://www.gratis-in-berlin.de/heute/item/2075249-up-close-goldrausch-2025-taeglich,Schierker Str.  8 12051 Berlin,52.4708958,13.4368213
Systemrelevant: Frauen in Herrscherfamilien (Mi - Mo),https://www.gratis-in-berlin.de/heute/item/2075913-systemrelevant-frauen-in-herrscherfamilien-mi-mo,"Humboldt Forum, Schloßplatz 10178 Berlin",52.5172152,13.4007352
Feliciano Lana. Die Geschichte der Weißen (Mi - Mo),https://www.gratis-in-berlin.de/heute/item/2071887-feliciano-lana-die-geschichte-der-weissen-mi-mo,"Humboldt Forum, Schloßplatz 10178 Berlin",52.5172152,13.4007352
Trotzdem da! Kinder aus verbotenen Beziehungen zwischen Deutschen und Kriegsgefangenen oder Zwangsarbeiter*innen,https://www.gratis-in-berlin.de/heute/item/2075665-trotzdem-da-kinder-aus-verbotenen-beziehungen-zwischen-deutschen-und-kriegsgefangenen-oder-zwangsarbeiter-innen,Britzer Str.  5 12439 Berlin,52.4526094,13.5187979
Nora Turato (Rund um die Uhr geöffnet),https://www.gratis-in-berlin.de/heute/item/2073358-nora-turato-rund-um-die-uhr-geoeffnet,Chausseestraße  128,52.5277487,13.3862025
Museum Ephraim-Palais | Familien-Workshop: Bunte Druckwerkstatt zum Advent | 13 - 16 Uhr,https://www.gratis-in-berlin.de/heute/item/2075807-museum-ephraim-palais-familien-workshop-fotowerkstatt,Poststraße 16 10178 Berlin,52.5158704,13.4071942
zik Family Day,https://www.gratis-in-berlin.de/heute/item/2075156-zik-family-day,Schloßstr. 83 12165 Berlin,52.5004388,13.5224249
Erzählzeit mit dem Kamishibai (10 & 11 Uhr),https://www.gratis-in-berlin.de/heute/item/2074844-erzaehlzeit-mit-dem-kamishibai-10-11-uhr,Anton,33.8109271,-102.1632756
Schreibwerkstatt für Jugendliche in der Bezirkszentralbibliothek „Mark Twain“,https://www.gratis-in-berlin.de/heute/item/2043705-schreibwerkstatt-fuer-jugendliche-in-der-bezirkszentralbibliothek-mark-twain,Marzahner Promenade  55 12679 Berlin,52.5467698,13.5567171
Winterspielplatz im Zukunftshaus Wedding geöffnet,https://www.gratis-in-berlin.de/heute/item/2075129-winterspielplatz-im-zukunftshaus-wedding-geoeffnet,Müllerstraße 56,52.5538414,13.3464866
KiezDisko Moabit – von 18 bis 99 Jahren!,https://www.gratis-in-berlin.de/heute/item/2073956-kiezdisko-moabit-von-18-bis-99-jahren,Waldstr. 23/24 10551 Berlin,52.5312875,13.3317121
Markt am Tacheles,https://www.gratis-in-berlin.de/heute/item/2072019-markt-am-tacheles,Aaron Bernstein Platz 10117 Berlin,52.5252006,13.3900261
Antikgroßflohmarkt Trabrennbahn Karlshorst,https://www.gratis-in-berlin.de/heute/item/2059711-antikgrossflohmarkt-trabrennbahn-karlshorst,Treskowallee  159 10318 Berlin,52.4754984,13.5223823
I Write – Schreibclub/Writing Club,https://www.gratis-in-berlin.de/heute/item/2072227-i-write-schreibclub-writing-club,Otto,42.356173,-78.8317
Reparatur-Treff in Friedrichshain,https://www.gratis-in-berlin.de/heute/item/2072210-reparatur-treff-in-friedrichshain,Schreinerstraße 47 10245 Berlin,52.5171407,13.4673168
FreeTour (in English),https://www.gratis-in-berlin.de/heute/item/2056931-freetour-in-english,Unter den Linden 5 10117 Berlin,52.5171465,13.3961451
Mitmachen: DnD Pen-&-Paper,https://www.gratis-in-berlin.de/heute/item/2068465-mitmachen-dnd-pen-paper,Blücherplatz  1 10961 Berlin,52.4965672,13.3924936
Mitternachts-Stummfilm + Live-Orgel im Babylon,https://www.gratis-in-berlin.de/heute/item/2014093-mitternachts-stummfilm-live-orgel-im-babylon,Rosa,42.7309763,2.0702087
'bauhaus_werkstatt' im Bauhaus Archiv (jeden Samstag),https://www.gratis-in-berlin.de/heute/item/2034670-bauhaus-werkstatt-im-bauhaus-archiv-jeden-samstag,Knesebeckstraße 1 10623 Berlin Germany,52.5109116,13.3226696
Öffentliche Führung Dokumentationszentrum NS-Zwangsarbeit,https://www.gratis-in-berlin.de/heute/item/2014060-oeffentliche-fuehrung-dokumentationszentrum-ns-zwangsarbeit,Britzer Str.  5 12439 Berlin,52.4526094,13.5187979
NoonSong und Markt am Hohenzollernplatz,https://www.gratis-in-berlin.de/heute/item/2003823-noonsong-und-markt-am-hohenzollernplatz,Nassauische Str.  66,52.4938352,13.3265974
parkrun in Berlin - Volkspark Hasenheide kostenlos/free,https://www.gratis-in-berlin.de/heute/item/2034946-parkrun-in-berlin-volkspark-hasenheide-kostenlos-free,Columbiadamm  160 10965 Berlin,52.479787,13.4174937
